H1 CPF  2  HTS 2021  1 31 12  031  1 lageos1    NONE
H2  7603901 1155     8820 2021 01 31  0  0  0 2021 02 05  0  0  0   300 1 1  0 0 0 1
H5  0.2510
H9
10 0 59249   48600.00000  0       1529231.621      -6745728.750     -10112145.797
10 0 59249   48900.00000  0        588041.950      -8016191.271      -9237203.255
10 0 59249   49200.00000  0       -415654.448      -9091633.088      -8182047.062
10 0 59249   49500.00000  0      -1453718.906      -9949161.418      -6966974.966
10 0 59249   49800.00000  0      -2496406.412     -10571263.799      -5615511.043
10 0 59249   50100.00000  0      -3513187.188     -10946233.451      -4153954.101
10 0 59249   50400.00000  0      -4473605.723     -11068445.036      -2610860.606
10 0 59249   50700.00000  0      -5348152.121     -10938470.496      -1016472.529
10 0 59249   51000.00000  0      -6109119.309     -10563029.473        597897.234
10 0 59249   51300.00000  0      -6731419.387      -9954774.249       2200507.339
10 0 59249   51600.00000  0      -7193333.304      -9131914.853       3759842.489
10 0 59249   51900.00000  0      -7477170.147      -8117695.586       5245263.458
10 0 59249   52200.00000  0      -7569815.442      -6939739.401       6627636.316
10 0 59249   52500.00000  0      -7463151.835      -5629280.986       7879925.372
10 0 59249   52800.00000  0      -7154340.089      -4220312.769       8977735.915
10 0 59249   53100.00000  0      -6645953.174      -2748670.330       9899794.833
10 0 59249   53400.00000  0      -5945961.088      -1251084.710      10628359.567
10 0 59249   53700.00000  0      -5067568.640        235770.958      11149548.308
10 0 59249   54000.00000  0      -4028912.651       1676214.160      11453586.777
10 0 59249   54300.00000  0      -2852628.650       3036440.592      11534969.234
10 0 59249   54600.00000  0      -1565300.209       4285344.626      11392533.312
10 0 59249   54900.00000  0       -196806.535       5395253.488      11029450.005
10 0 59249   55200.00000  0       1220414.118       6342559.022      10453131.560
10 0 59249   55500.00000  0       2652166.222       7108234.102       9675061.253
10 0 59249   55800.00000  0       4063343.932       7678223.987       8710549.981
10 0 59249   56100.00000  0       5418802.673       8043706.063       7578425.415
10 0 59249   56400.00000  0       6684234.486       8201214.513       6300660.159
10 0 59249   56700.00000  0       7827026.378       8152629.537       4901946.064
10 0 59249   57000.00000  0       8817081.370       7905033.683       3409222.482
10 0 59249   57300.00000  0       9627582.794       7470440.854       1851166.909
10 0 59249   57600.00000  0      10235683.727       6865406.333        257656.952
10 0 59249   57900.00000  0      10623105.147       6110528.854      -1340787.023
10 0 59249   58200.00000  0      10776628.490       5229858.069      -2913568.983
10 0 59249   58500.00000  0      10688470.706       4250222.874      -4430584.379
10 0 59249   58800.00000  0      10356532.598       3200497.680      -5862777.799
10 0 59249   59100.00000  0       9784513.996       2110824.991      -7182681.803
10 0 59249   59400.00000  0       8981892.320       1011813.491      -8364927.950
10 0 59249   59700.00000  0       7963764.037        -66268.732      -9386721.606
10 0 59249   60000.00000  0       6750551.455      -1094286.271     -10228272.688
10 0 59249   60300.00000  0       5367580.098      -2044994.669     -10873175.186
10 0 59249   60600.00000  0       3844534.569      -2893746.560     -11308728.926
10 0 59249   60900.00000  0       2214803.331      -3619128.430     -11526197.656
10 0 59249   61200.00000  0        514725.356      -4203512.151     -11520998.145
10 0 59249   61500.00000  0      -1217246.104      -4633507.029     -11292815.601
10 0 59249   61800.00000  0      -2941444.955      -4900300.078     -10845641.467
10 0 59249   62100.00000  0      -4617939.085      -4999874.429     -10187730.512
10 0 59249   62400.00000  0      -6207500.702      -4933098.431      -9331475.258
10 0 59249   62700.00000  0      -7672576.573      -4705680.912      -8293197.072
10 0 59249   63000.00000  0      -8978233.116      -4327991.445      -7092854.936
10 0 59249   63300.00000  0     -10093050.545      -3814748.168      -5753674.863
10 0 59249   63600.00000  0     -10989940.216      -3184579.716      -4301705.240
10 0 59249   63900.00000  0     -11646860.342      -2459472.015      -2765305.765
10 0 59249   64200.00000  0     -12047407.277      -1664114.763      -1174580.155
10 0 59249   64500.00000  0     -12181262.788       -825166.284        439234.964
10 0 59249   64800.00000  0     -12044481.997         29541.287       2044410.559
10 0 59249   65100.00000  0     -11639611.897        871832.030       3609379.325
10 0 59249   65400.00000  0     -10975636.141       1674025.562       5103386.962
10 0 59249   65700.00000  0     -10067747.830       2409759.357       6497124.214
10 0 59249   66000.00000  0      -8936957.958       3054768.548       7763324.051
10 0 59249   66300.00000  0      -7609552.581       3587599.550       8877309.903
10 0 59249   66600.00000  0      -6116416.392       3990236.547       9817482.850
10 0 59249   66900.00000  0      -4492243.978       4248623.346      10565737.944
10 0 59249   67200.00000  0      -2774662.677       4353066.884      11107802.314
10 0 59249   67500.00000  0      -1003292.508       4298512.828      11433490.126
10 0 59249   67800.00000  0        781230.782       4084687.775      11536871.858
10 0 59249   68100.00000  0       2538243.884       3716106.542      11416357.443
10 0 59249   68400.00000  0       4228030.666       3201946.645      11074694.507
10 0 59249   68700.00000  0       5812760.318       2555795.400      10518884.330
10 0 59249   69000.00000  0       7257367.478       1795277.977       9760019.297
10 0 59249   69300.00000  0       8530354.972        941577.452       8813046.600
10 0 59249   69600.00000  0       9604502.013         18860.164       7696463.802
10 0 59249   69900.00000  0      10457463.160       -946378.305       6431952.654
10 0 59249   70200.00000  0      11072245.922      -1926029.543       5043958.306
10 0 59249   70500.00000  0      11437557.708      -2891132.849       3559221.669
10 0 59249   70800.00000  0      11548015.739      -3812660.716       2006273.336
10 0 59249   71100.00000  0      11404216.579      -4662309.546        414897.921
10 0 59249   71400.00000  0      11012665.102      -5413275.828      -1184421.853
10 0 59249   71700.00000  0      10385565.789      -6040998.381      -2761071.770
10 0 59249   72000.00000  0       9540482.388      -6523848.085      -4284873.717
10 0 59249   72300.00000  0       8499874.840      -6843747.836      -5726644.687
10 0 59249   72600.00000  0       7290525.019      -6986707.068      -7058737.823
10 0 59249   72900.00000  0       5942865.175      -6943257.170      -8255556.548
10 0 59249   73200.00000  0       4490224.936      -6708776.331      -9294033.300
10 0 59249   73500.00000  0       2968014.357      -6283694.788     -10154064.996
10 0 59249   73800.00000  0       1412861.724      -5673573.979     -10818897.948
10 0 59249   74100.00000  0       -138274.289      -4889055.805     -11275455.609
10 0 59249   74400.00000  0      -1648997.981      -3945680.899     -11514603.149
10 0 59249   74700.00000  0      -3084355.101      -2863577.670     -11531343.486
10 0 59249   75000.00000  0      -4411676.106      -1667026.734     -11324940.069
10 0 59249   75300.00000  0      -5601364.165       -383908.352     -10898962.409
10 0 59249   75600.00000  0      -6627608.524        954956.480     -10261251.216
10 0 59249   75900.00000  0      -7469004.818       2316557.511      -9423801.015
10 0 59249   76200.00000  0      -8109065.341       3666522.415      -8402559.433
10 0 59249   76500.00000  0      -8536604.227       4969999.711      -7217143.933
10 0 59249   76800.00000  0      -8745985.098       6192574.727      -5890478.779
10 0 59249   77100.00000  0      -8737222.000       7301193.592      -4448357.277
10 0 59249   77400.00000  0      -8515928.469       8265068.702      -2918936.775
10 0 59249   77700.00000  0      -8093114.077       9056538.496      -1332176.352
10 0 59249   78000.00000  0      -7484832.727       9651854.812        280770.593
10 0 59249   78300.00000  0      -6711692.039      10031872.735       1888194.654
10 0 59249   78600.00000  0      -5798238.119      10182620.642       3458483.979
10 0 59249   78900.00000  0      -4772234.525      10095732.058       4960776.611
10 0 59249   79200.00000  0      -3663858.006       9768725.742       6365595.108
10 0 59249   79500.00000  0      -2504836.366       9205125.772       7645447.700
10 0 59249   79800.00000  0      -1327555.363       8414418.955       8775381.763
10 0 59249   80100.00000  0       -164161.860       7411852.270       9733477.290
10 0 59249   80400.00000  0        954310.251       6218077.982      10501270.373
10 0 59249   80700.00000  0       1998766.613       4858658.455      11064099.171
10 0 59249   81000.00000  0       2942809.171       3363446.219      11411367.255
10 0 59249   81300.00000  0       3763403.952       1765857.635      11536721.560
10 0 59249   81600.00000  0       4441444.023        102060.473      11438144.166
10 0 59249   81900.00000  0       4962195.364      -1589902.953      11117958.912
10 0 59249   82200.00000  0       5315616.957      -3271034.762      10582755.311
10 0 59249   82500.00000  0       5496549.863      -4902320.070       9843233.435
10 0 59249   82800.00000  0       5504773.449      -6445662.785       8913974.478
10 0 59249   83100.00000  0       5344930.127      -7864796.871       7813142.572
10 0 59249   83400.00000  0       5026323.000      -9126152.259       6562124.256
10 0 59249   83700.00000  0       4562593.673     -10199655.825       5185112.688
10 0 59249   84000.00000  0       3971290.105     -11059449.502       3708644.341
10 0 59249   84300.00000  0       3273336.728     -11684509.482       2161096.488
99
